LEMUR-2-ARIANNA         
1 62699U 25009CU  26032.79810222  .00006811  00000+0  54908-3 0  9996
2 62699  97.7146 115.4175 0001576 201.5129 158.6029 15.00219799 57243
LEMUR-2-ALISIA          
1 62706U 25009DB  26032.73463574  .00006960  00000+0  55714-3 0  9994
2 62706  97.7205 115.9729 0002731 258.4349 101.6568 15.00484031 79835
LEMUR-2-ROUNDTRIPPER    
1 62711U 25009DG  26032.77907440  .00009043  00000+0  70774-3 0  9997
2 62711  97.7275 115.8691 0003255 261.7165  98.3690 15.01262388 57294
LEMUR-2-MYNAMEISJEFF    
1 62712U 25009DH  26032.71095794  .00009653  00000+0  75486-3 0  9994
2 62712  97.7338 116.0985 0003633 304.0922  55.9957 15.01271699 57285
LEMUR-2-LEIA-PHILIP     
1 63246U 25052AN  26032.43862734  .00004909  00000+0  44139-3 0  9990
2 63246  97.7004 286.6293 0003361 348.9052  11.2095 14.96109901 48369
LEMUR-2-LIA-MARTIN      
1 63248U 25052AQ  26032.93263986  .00005513  00000+0  49236-3 0  9996
2 63248  97.7075 287.4414 0001706 312.7068  47.4009 14.96324495 48442
LEMUR-2-DELOITTE-1      
1 63259U 25052BB  26032.70135320  .00004679  00000+0  41810-3 0  9995
2 63259  97.7083 287.5152 0001432 138.6114 221.5216 14.96378311 48425
LEMUR-2-EMERSONROSE     
1 63261U 25052BD  26032.67396043  .00005254  00000+0  45314-3 0  9998
2 63261  97.7077 287.7808 0002398 104.7605 255.3883 14.97712978 48441
LEMUR-2-MARACHE-FRAN    
1 63262U 25052BE  26032.65314573  .00007400  00000+0  62596-3 0  9991
2 63262  97.7061 287.9222 0004130 100.5806 259.5882 14.98325968 48456
LEMUR-2-THEFALCONER     
1 63264U 25052BG  26032.63953808  .00004548  00000+0  40935-3 0  9994
2 63264  97.7027 287.2230 0003652  91.4791 268.6849 14.96105790 48418
LEMUR-2-UNTITLED-SC     
1 63351U 25061A   26032.90218312  .00003993  00000+0  23353-3 0  9993
2 63351  97.5495   9.4760 0019857  17.1080 343.0816 15.12278435 47130
LEMUR-2-ESPERANZA       
1 63352U 25061B   26032.88693756  .00004881  00000+0  28391-3 0  9994
2 63352  97.5500   9.5247 0019376  16.3028 343.8822 15.12369447 47137
LEMUR-2-KREMPEL-BRO2    
1 63353U 25061C   26032.88532165  .00005239  00000+0  30106-3 0  9996
2 63353  97.5550   9.8854 0020083   9.1488 351.0104 15.12762262 47144
LEMUR-2-THERMORAPTOR    
1 63354U 25061D   26032.87371456  .00005317  00000+0  30495-3 0  9998
2 63354  97.5558   9.9251 0019783   8.3662 351.7895 15.12835376 47146
LEMUR-2-NEUROSPICY      
1 63355U 25061E   26032.92146383  .00004537  00000+0  26027-3 0  9993
2 63355  97.5485   9.7051 0017763  12.9604 347.2079 15.12936539 47153
LEMUR-2-TILLINFINITY    
1 63356U 25061F   26032.87659361  .00005467  00000+0  30765-3 0  9990
2 63356  97.5469   9.8564 0018558   1.0024 359.1241 15.13518270 47167
