[{"OBJECT_NAME":"LEMUR-2-ARIANNA","OBJECT_ID":"2025-009CU","EPOCH":"2026-02-01T19:09:16.031808","MEAN_MOTION":15.00219799,"ECCENTRICITY":0.00015769,"INCLINATION":97.7146,"RA_OF_ASC_NODE":115.4175,"ARG_OF_PERICENTER":201.5129,"MEAN_ANOMALY":158.6029,"EPHEMERIS_TYPE":0,"CLASSIFICATION_TYPE":"U","NORAD_CAT_ID":62699,"ELEMENT_SET_NO":999,"REV_AT_EPOCH":5724,"BSTAR":0.00054908266,"MEAN_MOTION_DOT":6.811e-5,"MEAN_MOTION_DDOT":0},{"OBJECT_NAME":"LEMUR-2-ALISIA","OBJECT_ID":"2025-009DB","EPOCH":"2026-02-01T17:37:52.527936","MEAN_MOTION":15.00484031,"ECCENTRICITY":0.00027318,"INCLINATION":97.7205,"RA_OF_ASC_NODE":115.9729,"ARG_OF_PERICENTER":258.4349,"MEAN_ANOMALY":101.6568,"EPHEMERIS_TYPE":0,"CLASSIFICATION_TYPE":"U","NORAD_CAT_ID":62706,"ELEMENT_SET_NO":999,"REV_AT_EPOCH":7983,"BSTAR":0.00055714475,"MEAN_MOTION_DOT":6.96e-5,"MEAN_MOTION_DDOT":0},{"OBJECT_NAME":"LEMUR-2-ROUNDTRIPPER","OBJECT_ID":"2025-009DG","EPOCH":"2026-02-01T18:41:52.028160","MEAN_MOTION":15.01262388,"ECCENTRICITY":0.00032556,"INCLINATION":97.7275,"RA_OF_ASC_NODE":115.8691,"ARG_OF_PERICENTER":261.7165,"MEAN_ANOMALY":98.369,"EPHEMERIS_TYPE":0,"CLASSIFICATION_TYPE":"U","NORAD_CAT_ID":62711,"ELEMENT_SET_NO":999,"REV_AT_EPOCH":5729,"BSTAR":0.0007077384,"MEAN_MOTION_DOT":9.043e-5,"MEAN_MOTION_DDOT":0},{"OBJECT_NAME":"LEMUR-2-MYNAMEISJEFF","OBJECT_ID":"2025-009DH","EPOCH":"2026-02-01T17:03:46.766016","MEAN_MOTION":15.01271699,"ECCENTRICITY":0.00036337,"INCLINATION":97.7338,"RA_OF_ASC_NODE":116.0985,"ARG_OF_PERICENTER":304.0922,"MEAN_ANOMALY":55.9957,"EPHEMERIS_TYPE":0,"CLASSIFICATION_TYPE":"U","NORAD_CAT_ID":62712,"ELEMENT_SET_NO":999,"REV_AT_EPOCH":5728,"BSTAR":0.00075485937,"MEAN_MOTION_DOT":9.653e-5,"MEAN_MOTION_DDOT":0},{"OBJECT_NAME":"LEMUR-2-LEIA-PHILIP","OBJECT_ID":"2025-052AN","EPOCH":"2026-02-01T10:31:37.402176","MEAN_MOTION":14.96109901,"ECCENTRICITY":0.00033618,"INCLINATION":97.7004,"RA_OF_ASC_NODE":286.6293,"ARG_OF_PERICENTER":348.9052,"MEAN_ANOMALY":11.2095,"EPHEMERIS_TYPE":0,"CLASSIFICATION_TYPE":"U","NORAD_CAT_ID":63246,"ELEMENT_SET_NO":999,"REV_AT_EPOCH":4836,"BSTAR":0.00044138805,"MEAN_MOTION_DOT":4.909e-5,"MEAN_MOTION_DDOT":0},{"OBJECT_NAME":"LEMUR-2-LIA-MARTIN","OBJECT_ID":"2025-052AQ","EPOCH":"2026-02-01T22:23:00.083904","MEAN_MOTION":14.96324495,"ECCENTRICITY":0.00017066,"INCLINATION":97.7075,"RA_OF_ASC_NODE":287.4414,"ARG_OF_PERICENTER":312.7068,"MEAN_ANOMALY":47.4009,"EPHEMERIS_TYPE":0,"CLASSIFICATION_TYPE":"U","NORAD_CAT_ID":63248,"ELEMENT_SET_NO":999,"REV_AT_EPOCH":4844,"BSTAR":0.00049236413,"MEAN_MOTION_DOT":5.513e-5,"MEAN_MOTION_DDOT":0},{"OBJECT_NAME":"LEMUR-2-DELOITTE-1","OBJECT_ID":"2025-052BB","EPOCH":"2026-02-01T16:49:56.916480","MEAN_MOTION":14.96378311,"ECCENTRICITY":0.00014322,"INCLINATION":97.7083,"RA_OF_ASC_NODE":287.5152,"ARG_OF_PERICENTER":138.6114,"MEAN_ANOMALY":221.5216,"EPHEMERIS_TYPE":0,"CLASSIFICATION_TYPE":"U","NORAD_CAT_ID":63259,"ELEMENT_SET_NO":999,"REV_AT_EPOCH":4842,"BSTAR":0.00041810047,"MEAN_MOTION_DOT":4.679e-5,"MEAN_MOTION_DDOT":0},{"OBJECT_NAME":"LEMUR-2-EMERSONROSE","OBJECT_ID":"2025-052BD","EPOCH":"2026-02-01T16:10:30.181152","MEAN_MOTION":14.97712978,"ECCENTRICITY":0.00023984,"INCLINATION":97.7077,"RA_OF_ASC_NODE":287.7808,"ARG_OF_PERICENTER":104.7605,"MEAN_ANOMALY":255.3883,"EPHEMERIS_TYPE":0,"CLASSIFICATION_TYPE":"U","NORAD_CAT_ID":63261,"ELEMENT_SET_NO":999,"REV_AT_EPOCH":4844,"BSTAR":0.00045313766,"MEAN_MOTION_DOT":5.254e-5,"MEAN_MOTION_DDOT":0},{"OBJECT_NAME":"LEMUR-2-MARACHE-FRAN","OBJECT_ID":"2025-052BE","EPOCH":"2026-02-01T15:40:31.791072","MEAN_MOTION":14.98325968,"ECCENTRICITY":0.00041308,"INCLINATION":97.7061,"RA_OF_ASC_NODE":287.9222,"ARG_OF_PERICENTER":100.5806,"MEAN_ANOMALY":259.5882,"EPHEMERIS_TYPE":0,"CLASSIFICATION_TYPE":"U","NORAD_CAT_ID":63262,"ELEMENT_SET_NO":999,"REV_AT_EPOCH":4845,"BSTAR":0.00062595538,"MEAN_MOTION_DOT":7.4e-5,"MEAN_MOTION_DDOT":0},{"OBJECT_NAME":"LEMUR-2-THEFALCONER","OBJECT_ID":"2025-052BG","EPOCH":"2026-02-01T15:20:56.090112","MEAN_MOTION":14.9610579,"ECCENTRICITY":0.0003652,"INCLINATION":97.7027,"RA_OF_ASC_NODE":287.223,"ARG_OF_PERICENTER":91.4791,"MEAN_ANOMALY":268.6849,"EPHEMERIS_TYPE":0,"CLASSIFICATION_TYPE":"U","NORAD_CAT_ID":63264,"ELEMENT_SET_NO":999,"REV_AT_EPOCH":4841,"BSTAR":0.0004093533,"MEAN_MOTION_DOT":4.548e-5,"MEAN_MOTION_DDOT":0},{"OBJECT_NAME":"LEMUR-2-UNTITLED-SC","OBJECT_ID":"2025-061A","EPOCH":"2026-02-01T21:39:08.621568","MEAN_MOTION":15.12278435,"ECCENTRICITY":0.00198574,"INCLINATION":97.5495,"RA_OF_ASC_NODE":9.476,"ARG_OF_PERICENTER":17.108,"MEAN_ANOMALY":343.0816,"EPHEMERIS_TYPE":0,"CLASSIFICATION_TYPE":"U","NORAD_CAT_ID":63351,"ELEMENT_SET_NO":999,"REV_AT_EPOCH":4713,"BSTAR":0.00023353367,"MEAN_MOTION_DOT":3.993e-5,"MEAN_MOTION_DDOT":0},{"OBJECT_NAME":"LEMUR-2-ESPERANZA","OBJECT_ID":"2025-061B","EPOCH":"2026-02-01T21:17:11.405184","MEAN_MOTION":15.12369447,"ECCENTRICITY":0.00193768,"INCLINATION":97.55,"RA_OF_ASC_NODE":9.5247,"ARG_OF_PERICENTER":16.3028,"MEAN_ANOMALY":343.8822,"EPHEMERIS_TYPE":0,"CLASSIFICATION_TYPE":"U","NORAD_CAT_ID":63352,"ELEMENT_SET_NO":999,"REV_AT_EPOCH":4713,"BSTAR":0.00028391358,"MEAN_MOTION_DOT":4.881e-5,"MEAN_MOTION_DDOT":0},{"OBJECT_NAME":"LEMUR-2-KREMPEL-BRO2","OBJECT_ID":"2025-061C","EPOCH":"2026-02-01T21:14:51.790560","MEAN_MOTION":15.12762262,"ECCENTRICITY":0.00200838,"INCLINATION":97.555,"RA_OF_ASC_NODE":9.8854,"ARG_OF_PERICENTER":9.1488,"MEAN_ANOMALY":351.0104,"EPHEMERIS_TYPE":0,"CLASSIFICATION_TYPE":"U","NORAD_CAT_ID":63353,"ELEMENT_SET_NO":999,"REV_AT_EPOCH":4714,"BSTAR":0.00030106307,"MEAN_MOTION_DOT":5.239e-5,"MEAN_MOTION_DDOT":0},{"OBJECT_NAME":"LEMUR-2-THERMORAPTOR","OBJECT_ID":"2025-061D","EPOCH":"2026-02-01T20:58:08.937984","MEAN_MOTION":15.12835376,"ECCENTRICITY":0.00197837,"INCLINATION":97.5558,"RA_OF_ASC_NODE":9.9251,"ARG_OF_PERICENTER":8.3662,"MEAN_ANOMALY":351.7895,"EPHEMERIS_TYPE":0,"CLASSIFICATION_TYPE":"U","NORAD_CAT_ID":63354,"ELEMENT_SET_NO":999,"REV_AT_EPOCH":4714,"BSTAR":0.00030494658,"MEAN_MOTION_DOT":5.317e-5,"MEAN_MOTION_DDOT":0},{"OBJECT_NAME":"LEMUR-2-NEUROSPICY","OBJECT_ID":"2025-061E","EPOCH":"2026-02-01T22:06:54.474912","MEAN_MOTION":15.12936539,"ECCENTRICITY":0.00177639,"INCLINATION":97.5485,"RA_OF_ASC_NODE":9.7051,"ARG_OF_PERICENTER":12.9604,"MEAN_ANOMALY":347.2079,"EPHEMERIS_TYPE":0,"CLASSIFICATION_TYPE":"U","NORAD_CAT_ID":63355,"ELEMENT_SET_NO":999,"REV_AT_EPOCH":4715,"BSTAR":0.0002602692,"MEAN_MOTION_DOT":4.537e-5,"MEAN_MOTION_DDOT":0},{"OBJECT_NAME":"LEMUR-2-TILLINFINITY","OBJECT_ID":"2025-061F","EPOCH":"2026-02-01T21:02:17.687904","MEAN_MOTION":15.1351827,"ECCENTRICITY":0.00185588,"INCLINATION":97.5469,"RA_OF_ASC_NODE":9.8564,"ARG_OF_PERICENTER":1.0024,"MEAN_ANOMALY":359.1241,"EPHEMERIS_TYPE":0,"CLASSIFICATION_TYPE":"U","NORAD_CAT_ID":63356,"ELEMENT_SET_NO":999,"REV_AT_EPOCH":4716,"BSTAR":0.00030765458,"MEAN_MOTION_DOT":5.467e-5,"MEAN_MOTION_DDOT":0}]
